[
  {
    "OBJECT_NAME": "STARLINK-3993",
    "OBJECT_ID": "2022-053AN",
    "EPOCH": "2025-06-21T13:51:30.036672",
    "MEAN_MOTION": 15.08841485,
    "ECCENTRICITY": 0.000117,
    "INCLINATION": 53.2164,
    "RA_OF_ASC_NODE": 236.0322,
    "ARG_OF_PERICENTER": 81.6253,
    "MEAN_ANOMALY": 278.4872,
    "EPHEMERIS_TYPE": 0,
    "CLASSIFICATION_TYPE": "U",
    "NORAD_CAT_ID": 52692,
    "ELEMENT_SET_NO": 999,
    "REV_AT_EPOCH": 17173,
    "BSTAR": 5.2656e-05,
    "MEAN_MOTION_DOT": 5.5e-06,
    "MEAN_MOTION_DDOT": 0
  },
  {
    "OBJECT_NAME": "STARLINK-3946",
    "OBJECT_ID": "2022-053AP",
    "EPOCH": "2025-06-21T14:02:08.681280",
    "MEAN_MOTION": 15.08841728,
    "ECCENTRICITY": 0.0001201,
    "INCLINATION": 53.2168,
    "RA_OF_ASC_NODE": 236.2684,
    "ARG_OF_PERICENTER": 84.2132,
    "MEAN_ANOMALY": 275.8997,
    "EPHEMERIS_TYPE": 0,
    "CLASSIFICATION_TYPE": "U",
    "NORAD_CAT_ID": 52693,
    "ELEMENT_SET_NO": 999,
    "REV_AT_EPOCH": 17173,
    "BSTAR": 1.4965e-05,
    "MEAN_MOTION_DOT": -5e-07,
    "MEAN_MOTION_DDOT": 0
  },
  {
    "OBJECT_NAME": "STARLINK-4072",
    "OBJECT_ID": "2022-053AQ",
    "EPOCH": "2025-06-21T14:23:20.435712",
    "MEAN_MOTION": 15.08845827,
    "ECCENTRICITY": 0.0001169,
    "INCLINATION": 53.2166,
    "RA_OF_ASC_NODE": 236.2007,
    "ARG_OF_PERICENTER": 94.1141,
    "MEAN_ANOMALY": 265.9985,
    "EPHEMERIS_TYPE": 0,
    "CLASSIFICATION_TYPE": "U",
    "NORAD_CAT_ID": 52694,
    "ELEMENT_SET_NO": 999,
    "REV_AT_EPOCH": 17173,
    "BSTAR": -2.9212e-05,
    "MEAN_MOTION_DOT": -7.53e-06,
    "MEAN_MOTION_DDOT": 0
  },
  {
    "OBJECT_NAME": "STARLINK-4041",
    "OBJECT_ID": "2022-053AR",
    "EPOCH": "2025-06-21T13:42:54.278784",
    "MEAN_MOTION": 15.08838097,
    "ECCENTRICITY": 0.0001208,
    "INCLINATION": 53.2171,
    "RA_OF_ASC_NODE": 241.1244,
    "ARG_OF_PERICENTER": 86.8392,
    "MEAN_ANOMALY": 273.2738,
    "EPHEMERIS_TYPE": 0,
    "CLASSIFICATION_TYPE": "U",
    "NORAD_CAT_ID": 52695,
    "ELEMENT_SET_NO": 999,
    "REV_AT_EPOCH": 17126,
    "BSTAR": 2.1052e-05,
    "MEAN_MOTION_DOT": 4.7e-07,
    "MEAN_MOTION_DDOT": 0
  },
  {
    "OBJECT_NAME": "STARLINK-4018",
    "OBJECT_ID": "2022-053AT",
    "EPOCH": "2025-06-21T14:21:24.528384",
    "MEAN_MOTION": 15.08840562,
    "ECCENTRICITY": 0.0001105,
    "INCLINATION": 53.2171,
    "RA_OF_ASC_NODE": 241.2064,
    "ARG_OF_PERICENTER": 98.8006,
    "MEAN_ANOMALY": 261.3111,
    "EPHEMERIS_TYPE": 0,
    "CLASSIFICATION_TYPE": "U",
    "NORAD_CAT_ID": 52697,
    "ELEMENT_SET_NO": 999,
    "REV_AT_EPOCH": 17167,
    "BSTAR": -0.00011523,
    "MEAN_MOTION_DOT": -2.121e-05,
    "MEAN_MOTION_DDOT": 0
  },
  {
    "OBJECT_NAME": "STARLINK-4030",
    "OBJECT_ID": "2022-053AU",
    "EPOCH": "2025-06-21T11:25:09.194304",
    "MEAN_MOTION": 15.08840639,
    "ECCENTRICITY": 0.0001154,
    "INCLINATION": 53.2159,
    "RA_OF_ASC_NODE": 241.7442,
    "ARG_OF_PERICENTER": 81.3484,
    "MEAN_ANOMALY": 278.7639,
    "EPHEMERIS_TYPE": 0,
    "CLASSIFICATION_TYPE": "U",
    "NORAD_CAT_ID": 52698,
    "ELEMENT_SET_NO": 999,
    "REV_AT_EPOCH": 17164,
    "BSTAR": 1.0905e-05,
    "MEAN_MOTION_DOT": -1.14e-06,
    "MEAN_MOTION_DDOT": 0
  },
  {
    "OBJECT_NAME": "STARLINK-3987",
    "OBJECT_ID": "2022-053AV",
    "EPOCH": "2025-06-21T20:27:00.303840",
    "MEAN_MOTION": 15.08836526,
    "ECCENTRICITY": 0.0001119,
    "INCLINATION": 53.2162,
    "RA_OF_ASC_NODE": 230.0952,
    "ARG_OF_PERICENTER": 79.6811,
    "MEAN_ANOMALY": 280.4307,
    "EPHEMERIS_TYPE": 0,
    "CLASSIFICATION_TYPE": "U",
    "NORAD_CAT_ID": 52699,
    "ELEMENT_SET_NO": 999,
    "REV_AT_EPOCH": 17143,
    "BSTAR": 1.5194e-05,
    "MEAN_MOTION_DOT": -4.6e-07,
    "MEAN_MOTION_DDOT": 0
  },
  {
    "OBJECT_NAME": "STARLINK-4034",
    "OBJECT_ID": "2022-053AW",
    "EPOCH": "2025-06-21T04:05:15.882144",
    "MEAN_MOTION": 15.08835467,
    "ECCENTRICITY": 0.0001223,
    "INCLINATION": 53.2166,
    "RA_OF_ASC_NODE": 242.7694,
    "ARG_OF_PERICENTER": 92.7024,
    "MEAN_ANOMALY": 267.4108,
    "EPHEMERIS_TYPE": 0,
    "CLASSIFICATION_TYPE": "U",
    "NORAD_CAT_ID": 52700,
    "ELEMENT_SET_NO": 999,
    "REV_AT_EPOCH": 17161,
    "BSTAR": 4.695e-05,
    "MEAN_MOTION_DOT": 4.59e-06,
    "MEAN_MOTION_DDOT": 0
  },
  {
    "OBJECT_NAME": "STARLINK-4033",
    "OBJECT_ID": "2022-053AY",
    "EPOCH": "2025-06-21T14:20:03.035904",
    "MEAN_MOTION": 15.0883216,
    "ECCENTRICITY": 0.0001321,
    "INCLINATION": 53.2163,
    "RA_OF_ASC_NODE": 241.2399,
    "ARG_OF_PERICENTER": 92.5738,
    "MEAN_ANOMALY": 267.5406,
    "EPHEMERIS_TYPE": 0,
    "CLASSIFICATION_TYPE": "U",
    "NORAD_CAT_ID": 52702,
    "ELEMENT_SET_NO": 999,
    "REV_AT_EPOCH": 17126,
    "BSTAR": 0.00024214,
    "MEAN_MOTION_DOT": 3.567e-05,
    "MEAN_MOTION_DDOT": 0
  },
  {
    "OBJECT_NAME": "STARLINK-4020",
    "OBJECT_ID": "2022-053AZ",
    "EPOCH": "2025-06-21T13:21:04.860864",
    "MEAN_MOTION": 15.08840402,
    "ECCENTRICITY": 0.0001239,
    "INCLINATION": 53.2168,
    "RA_OF_ASC_NODE": 226.4097,
    "ARG_OF_PERICENTER": 92.6368,
    "MEAN_ANOMALY": 267.4766,
    "EPHEMERIS_TYPE": 0,
    "CLASSIFICATION_TYPE": "U",
    "NORAD_CAT_ID": 52703,
    "ELEMENT_SET_NO": 999,
    "REV_AT_EPOCH": 17061,
    "BSTAR": 3.3139e-05,
    "MEAN_MOTION_DOT": 2.4e-06,
    "MEAN_MOTION_DDOT": 0
  },
  {
    "OBJECT_NAME": "STARLINK-3999",
    "OBJECT_ID": "2022-053BA",
    "EPOCH": "2025-06-21T04:09:57.622176",
    "MEAN_MOTION": 15.08838164,
    "ECCENTRICITY": 0.0001148,
    "INCLINATION": 53.2163,
    "RA_OF_ASC_NODE": 228.1132,
    "ARG_OF_PERICENTER": 80.8305,
    "MEAN_ANOMALY": 279.2817,
    "EPHEMERIS_TYPE": 0,
    "CLASSIFICATION_TYPE": "U",
    "NORAD_CAT_ID": 52704,
    "ELEMENT_SET_NO": 999,
    "REV_AT_EPOCH": 17183,
    "BSTAR": 8.2811e-06,
    "MEAN_MOTION_DOT": -1.56e-06,
    "MEAN_MOTION_DDOT": 0
  },
  {
    "OBJECT_NAME": "STARLINK-3844",
    "OBJECT_ID": "2022-053BB",
    "EPOCH": "2025-06-21T13:26:22.453440",
    "MEAN_MOTION": 15.08840566,
    "ECCENTRICITY": 0.0001142,
    "INCLINATION": 53.216,
    "RA_OF_ASC_NODE": 226.3795,
    "ARG_OF_PERICENTER": 85.6938,
    "MEAN_ANOMALY": 274.4185,
    "EPHEMERIS_TYPE": 0,
    "CLASSIFICATION_TYPE": "U",
    "NORAD_CAT_ID": 52705,
    "ELEMENT_SET_NO": 999,
    "REV_AT_EPOCH": 17189,
    "BSTAR": 3.4802e-05,
    "MEAN_MOTION_DOT": 2.66e-06,
    "MEAN_MOTION_DDOT": 0
  },
  {
    "OBJECT_NAME": "STARLINK-3970",
    "OBJECT_ID": "2022-053BC",
    "EPOCH": "2025-06-21T03:59:21.625728",
    "MEAN_MOTION": 15.08839344,
    "ECCENTRICITY": 7.37e-05,
    "INCLINATION": 53.2159,
    "RA_OF_ASC_NODE": 228.1469,
    "ARG_OF_PERICENTER": 85.9359,
    "MEAN_ANOMALY": 274.1718,
    "EPHEMERIS_TYPE": 0,
    "CLASSIFICATION_TYPE": "U",
    "NORAD_CAT_ID": 52706,
    "ELEMENT_SET_NO": 999,
    "REV_AT_EPOCH": 17183,
    "BSTAR": 4.2415e-05,
    "MEAN_MOTION_DOT": 3.87e-06,
    "MEAN_MOTION_DDOT": 0
  },
  {
    "OBJECT_NAME": "STARLINK-4007",
    "OBJECT_ID": "2022-053BD",
    "EPOCH": "2025-06-21T12:59:51.848448",
    "MEAN_MOTION": 15.0884911,
    "ECCENTRICITY": 0.0001544,
    "INCLINATION": 53.2166,
    "RA_OF_ASC_NODE": 226.3457,
    "ARG_OF_PERICENTER": 76.9698,
    "MEAN_ANOMALY": 283.1467,
    "EPHEMERIS_TYPE": 0,
    "CLASSIFICATION_TYPE": "U",
    "NORAD_CAT_ID": 52707,
    "ELEMENT_SET_NO": 999,
    "REV_AT_EPOCH": 17195,
    "BSTAR": 3.3226e-05,
    "MEAN_MOTION_DOT": 2.41e-06,
    "MEAN_MOTION_DDOT": 0
  },
  {
    "OBJECT_NAME": "STARLINK-3962",
    "OBJECT_ID": "2022-053BE",
    "EPOCH": "2025-06-21T12:28:05.374560",
    "MEAN_MOTION": 15.08834081,
    "ECCENTRICITY": 0.0001114,
    "INCLINATION": 53.2158,
    "RA_OF_ASC_NODE": 226.5465,
    "ARG_OF_PERICENTER": 88.75,
    "MEAN_ANOMALY": 271.362,
    "EPHEMERIS_TYPE": 0,
    "CLASSIFICATION_TYPE": "U",
    "NORAD_CAT_ID": 52708,
    "ELEMENT_SET_NO": 999,
    "REV_AT_EPOCH": 17209,
    "BSTAR": 6.106e-06,
    "MEAN_MOTION_DOT": -1.91e-06,
    "MEAN_MOTION_DDOT": 0
  },
  {
    "OBJECT_NAME": "STARLINK-4091",
    "OBJECT_ID": "2022-062A",
    "EPOCH": "2025-06-21T14:22:03.148320",
    "MEAN_MOTION": 15.0883933,
    "ECCENTRICITY": 0.0001443,
    "INCLINATION": 53.2176,
    "RA_OF_ASC_NODE": 126.3942,
    "ARG_OF_PERICENTER": 70.7976,
    "MEAN_ANOMALY": 289.3173,
    "EPHEMERIS_TYPE": 0,
    "CLASSIFICATION_TYPE": "U",
    "NORAD_CAT_ID": 52830,
    "ELEMENT_SET_NO": 999,
    "REV_AT_EPOCH": 16636,
    "BSTAR": 3.5708e-05,
    "MEAN_MOTION_DOT": 2.8e-06,
    "MEAN_MOTION_DDOT": 0
  },
  {
    "OBJECT_NAME": "STARLINK-4089",
    "OBJECT_ID": "2022-062B",
    "EPOCH": "2025-06-21T14:11:25.443744",
    "MEAN_MOTION": 15.08837583,
    "ECCENTRICITY": 0.0001267,
    "INCLINATION": 53.2172,
    "RA_OF_ASC_NODE": 126.2342,
    "ARG_OF_PERICENTER": 68.5515,
    "MEAN_ANOMALY": 291.5612,
    "EPHEMERIS_TYPE": 0,
    "CLASSIFICATION_TYPE": "U",
    "NORAD_CAT_ID": 52831,
    "ELEMENT_SET_NO": 999,
    "REV_AT_EPOCH": 16636,
    "BSTAR": 5.3328e-05,
    "MEAN_MOTION_DOT": 5.61e-06,
    "MEAN_MOTION_DDOT": 0
  },
  {
    "OBJECT_NAME": "STARLINK-4083",
    "OBJECT_ID": "2022-062C",
    "EPOCH": "2025-06-21T14:06:07.353504",
    "MEAN_MOTION": 15.08838302,
    "ECCENTRICITY": 0.000125,
    "INCLINATION": 53.2177,
    "RA_OF_ASC_NODE": 126.2505,
    "ARG_OF_PERICENTER": 80.0133,
    "MEAN_ANOMALY": 280.1,
    "EPHEMERIS_TYPE": 0,
    "CLASSIFICATION_TYPE": "U",
    "NORAD_CAT_ID": 52832,
    "ELEMENT_SET_NO": 999,
    "REV_AT_EPOCH": 16636,
    "BSTAR": 5.251e-05,
    "MEAN_MOTION_DOT": 5.48e-06,
    "MEAN_MOTION_DDOT": 0
  }
]